NORAD_CAT_ID,OBJECT_NAME,OBJECT_TYPE,EPOCH,MEAN_MOTION,ECCENTRICITY,INCLINATION,RA_OF_ASC_NODE,ARG_OF_PERICENTER,MEAN_ANOMALY,BSTAR,MEAN_MOTION_DOT,MEAN_MOTION_DDOT,TLE_LINE0,TLE_LINE1,TLE_LINE2,SEMIMAJOR_AXIS,PERIOD,APOGEE,PERIGEE,DECAYED
54077.0,STARLINK-5171,PAYLOAD,2023-09-03 00:52:03,15.08836372,0.0001608,53.2185,127.7972,94.682,265.4356,2.4386e-05,1e-06,0.0,0 STARLINK-5171,1 54077U 22136AC  23246.03615611  .00000100  00000-0  24386-4 0  9995,2 54077  53.2185 127.7972 0001608  94.6820 265.4356 15.08836372 48925,6917.891,95.438,540.869,538.644,0.0
54077.0,STARLINK-5171,PAYLOAD,2023-09-03 08:48:59,15.08837602,0.0001391,53.2186,126.3108,84.4874,275.6277,-4.7699e-05,-1.047e-05,0.0,0 STARLINK-5171,1 54077U 22136AC  23246.36735870 -.00001047  00000-0 -47699-4 0  9996,2 54077  53.2186 126.3108 0001391  84.4874 275.6277 15.08837602 48491,6917.888,95.438,540.715,538.79,0.0
54077.0,STARLINK-5171,PAYLOAD,2023-09-04 02:18:14,15.08837118,0.0001453,53.2178,123.037,92.228,267.8879,8.9185e-05,1.132e-05,0.0,0 STARLINK-5171,1 54077U 22136AC  23247.09599667  .00001132  00000-0  89185-4 0  9998,2 54077  53.2178 123.0370 0001453  92.2280 267.8879 15.08837118 49083,6917.889,95.438,540.759,538.749,0.0
54077.0,STARLINK-5171,PAYLOAD,2023-09-04 08:39:46,15.08834103,0.0001481,53.217,121.847,93.0736,267.0425,6.401e-05,7.31e-06,0.0,0 STARLINK-5171,1 54077U 22136AC  23247.36096044  .00000731  00000-0  64010-4 0  9993,2 54077  53.2170 121.8470 0001481  93.0736 267.0425 15.08834103 48649,6917.898,95.438,540.788,538.739,0.0
54077.0,STARLINK-5171,PAYLOAD,2023-09-05 00:33:38,15.08837921,0.0001331,53.2173,118.8745,91.8025,268.3119,6.2895e-05,7.13e-06,0.0,0 STARLINK-5171,1 54077U 22136AC  23248.02336038  .00000713  00000-0  62895-4 0  9996,2 54077  53.2173 118.8745 0001331  91.8025 268.3119 15.08837921 48740,6917.887,95.438,540.673,538.831,0.0
54077.0,STARLINK-5171,PAYLOAD,2023-09-05 14:52:06,15.08825422,0.0001238,53.2169,116.1968,95.1606,264.9528,0.0002744,4.08e-05,0.0,0 STARLINK-5171,1 54077U 22136AC  23248.61952320  .00004080  00000-0  27440-3 0  9996,2 54077  53.2169 116.1968 0001238  95.1606 264.9528 15.08825422 49314,6917.925,95.438,540.646,538.934,0.0
54077.0,STARLINK-5171,PAYLOAD,2023-09-06 01:59:48,15.08844936,0.0001233,53.2169,114.1154,91.9753,268.1381,9.0328e-05,1.15e-05,0.0,0 STARLINK-5171,1 54077U 22136AC  23249.08319558  .00001150  00000-0  90328-4 0  9999,2 54077  53.2169 114.1154 0001233  91.9753 268.1381 15.08844936 49382,6917.865,95.437,540.583,538.877,0.0
54077.0,STARLINK-5171,PAYLOAD,2023-09-06 21:04:25,15.0884432,0.0001299,53.217,110.5472,91.1362,268.9778,0.00010612,1.402e-05,0.0,0 STARLINK-5171,1 54077U 22136AC  23249.87807488  .00001402  00000-0  10612-3 0  9997,2 54077  53.2170 110.5472 0001299  91.1362 268.9778 15.08844320 49023,6917.867,95.437,540.631,538.834,0.0
54077.0,STARLINK-5171,PAYLOAD,2023-09-07 00:15:11,15.08849221,0.0001335,53.2171,109.9527,86.7158,273.3987,0.00010172,1.332e-05,0.0,0 STARLINK-5171,1 54077U 22136AC  23250.01055157  .00001332  00000-0  10172-3 0  9996,2 54077  53.2171 109.9527 0001335  86.7158 273.3987 15.08849221 49040,6917.852,95.437,540.641,538.794,0.0
54077.0,STARLINK-5171,PAYLOAD,2023-09-07 14:33:40,15.08838419,0.0001721,53.2145,107.2763,92.8196,267.2994,-9.5328e-06,-4.4e-06,0.0,0 STARLINK-5171,1 54077U 22136AC  23250.60672091 -.00000440  00000-0 -95328-5 0  9992,2 54077  53.2145 107.2763 0001721  92.8196 267.2994 15.08838419 49613,6917.885,95.438,540.941,538.56,0.0
54077.0,STARLINK-5171,PAYLOAD,2023-09-08 00:05:59,15.0883657,0.0001673,53.2148,105.4921,91.1693,268.949,-2.5989e-05,-7.02e-06,0.0,0 STARLINK-5171,1 54077U 22136AC  23251.00416314 -.00000702  00000-0 -25989-4 0  9997,2 54077  53.2148 105.4921 0001673  91.1693 268.9490 15.08836570 49190,6917.891,95.438,540.913,538.599,0.0
54077.0,STARLINK-5171,PAYLOAD,2023-09-08 19:10:36,15.08846935,0.0001344,53.2173,101.9232,89.6058,270.5088,-3.1476e-05,-7.89e-06,0.0,0 STARLINK-5171,1 54077U 22136AC  23251.79903700 -.00000789  00000-0 -31476-4 0  9996,2 54077  53.2173 101.9232 0001344  89.6058 270.5088 15.08846935 49790,6917.859,95.437,540.654,538.794,0.0
54077.0,STARLINK-5171,PAYLOAD,2023-09-08 20:45:59,15.08854055,0.0001229,53.2172,101.6263,82.8865,277.2267,-7.3755e-05,-1.462e-05,0.0,0 STARLINK-5171,1 54077U 22136AC  23251.86527407 -.00001462  00000-0 -73755-4 0  9995,2 54077  53.2172 101.6263 0001229  82.8865 277.2267 15.08854055 49327,6917.837,95.437,540.553,538.852,0.0
54077.0,STARLINK-5171,PAYLOAD,2023-09-09 14:15:14,15.08837322,0.0001344,53.2175,98.3528,85.9447,274.1699,6.4588e-05,7.4e-06,0.0,0 STARLINK-5171,1 54077U 22136AC  23252.59392118  .00000740  00000-0  64588-4 0  9995,2 54077  53.2175  98.3528 0001344  85.9447 274.1699 15.08837322 49439,6917.889,95.438,540.683,538.824,0.0
54077.0,STARLINK-5171,PAYLOAD,2023-09-09 19:01:24,15.08838951,0.0001313,53.2173,97.4609,85.1577,274.9565,7.6552e-05,9.31e-06,0.0,0 STARLINK-5171,1 54077U 22136AC  23252.79264008  .00000931  00000-0  76552-4 0  9999,2 54077  53.2173  97.4609 0001313  85.1577 274.9565 15.08838951 49944,6917.884,95.438,540.657,538.84,0.0
54077.0,STARLINK-5171,PAYLOAD,2023-09-10 06:09:06,15.08839053,0.0001295,53.2172,95.3796,84.2703,275.8436,4.612e-05,4.46e-06,0.0,0 STARLINK-5171,1 54077U 22136AC  23253.25632152  .00000446  00000-0  46120-4 0  9999,2 54077  53.2172  95.3796 0001295  84.2703 275.8436 15.08839053 49533,6917.883,95.438,540.644,538.852,0.0
54077.0,STARLINK-5171,PAYLOAD,2023-09-10 23:38:20,15.08842234,0.0001278,53.2173,92.1092,83.8037,276.3101,4.4743e-05,4.24e-06,0.0,0 STARLINK-5171,1 54077U 22136AC  23253.98496014  .00000424  00000-0  44743-4 0  9999,2 54077  53.2173  92.1092 0001278  83.8037 276.3101 15.08842234 50121,6917.874,95.437,540.623,538.854,0.0
54077.0,STARLINK-5171,PAYLOAD,2023-09-11 05:59:53,15.08840594,0.0001266,53.2173,90.9196,82.5531,277.5605,4.6663e-05,4.55e-06,0.0,0 STARLINK-5171,1 54077U 22136AC  23254.24992121  .00000455  00000-0  46663-4 0  9996,2 54077  53.2173  90.9196 0001266  82.5531 277.5605 15.08840594 49682,6917.879,95.438,540.619,538.868,0.0
54077.0,STARLINK-5171,PAYLOAD,2023-09-11 17:07:35,15.08834828,0.0001267,53.2175,88.8387,86.6323,273.4814,8.2357e-06,-1.57e-06,0.0,0 STARLINK-5171,1 54077U 22136AC  23254.71360720 -.00000157  00000-0  82357-5 0  9993,2 54077  53.2175  88.8387 0001267  86.6323 273.4814 15.08834828 50230,6917.896,95.438,540.638,538.885,0.0
54077.0,STARLINK-5171,PAYLOAD,2023-09-12 05:50:40,15.08837467,0.0001265,53.2177,86.4615,93.4231,266.6906,-7.3574e-06,-4.05e-06,0.0,0 STARLINK-5171,1 54077U 22136AC  23255.24352695 -.00000405  00000-0 -73574-5 0  9992,2 54077  53.2177  86.4615 0001265  93.4231 266.6906 15.08837467 49834,6917.888,95.438,540.628,538.878,0.0
54077.0,STARLINK-5171,PAYLOAD,2023-09-12 20:09:08,15.08839983,0.0001179,53.2166,83.7836,87.8654,272.2473,3.7361e-05,3.07e-06,0.0,0 STARLINK-5171,1 54077U 22136AC  23255.83968703  .00000307  00000-0  37361-4 0  9992,2 54077  53.2166  83.7836 0001179  87.8654 272.2473 15.08839983 49924,6917.88,95.438,540.561,538.93,0.0
54077.0,STARLINK-5171,PAYLOAD,2023-09-13 12:02:59,15.08846217,0.0001209,53.2166,80.8098,85.8718,274.2412,0.00013878,1.922e-05,0.0,0 STARLINK-5171,1 54077U 22136AC  23256.50207990  .00001922  00000-0  13878-3 0  9991,2 54077  53.2166  80.8098 0001209  85.8718 274.2412 15.08846217 50021,6917.861,95.437,540.563,538.89,0.0
54077.0,STARLINK-5171,PAYLOAD,2023-09-13 18:24:31,15.08851395,0.0001225,53.2168,79.6205,83.2604,276.8528,0.00016478,2.336e-05,0.0,0 STARLINK-5171,1 54077U 22136AC  23256.76703582  .00002336  00000-0  16478-3 0  9996,2 54077  53.2168  79.6205 0001225  83.2604 276.8528 15.08851395 50549,6917.846,95.437,540.558,538.863,0.0
54077.0,STARLINK-5171,PAYLOAD,2023-09-13 19:59:54,15.0885499,0.0001275,53.2178,79.324,92.8382,267.2756,0.00015607,2.198e-05,0.0,0 STARLINK-5171,1 54077U 22136AC  23256.83327400  .00002198  00000-0  15607-3 0  9994,2 54077  53.2178  79.3240 0001275  92.8382 267.2756 15.08854990 50079,6917.835,95.437,540.582,538.818,0.0
54077.0,STARLINK-5171,PAYLOAD,2023-09-14 11:53:47,15.08835435,0.0001375,53.2181,76.3497,84.1826,275.9323,0.00010968,1.458e-05,0.0,0 STARLINK-5171,1 54077U 22136AC  23257.49569047  .00001458  00000-0  10968-3 0  9995,2 54077  53.2181  76.3497 0001375  84.1826 275.9323 15.08835435 50172,6917.894,95.438,540.711,538.808,0.0
54077.0,STARLINK-5171,PAYLOAD,2023-09-14 18:15:20,15.08835777,0.0001316,53.2167,75.1599,85.1988,274.9154,-2.5855e-05,-6.99e-06,0.0,0 STARLINK-5171,1 54077U 22136AC  23257.76064910 -.00000699  00000-0 -25855-4 0  9994,2 54077  53.2167  75.1599 0001316  85.1988 274.9154 15.08835777 50698,6917.893,95.438,540.669,538.848,0.0
54077.0,STARLINK-5171,PAYLOAD,2023-09-15 11:44:33,15.08861969,9.43e-05,53.2172,71.8891,84.234,275.876,0.00025373,3.755e-05,0.0,0 STARLINK-5171,1 54077U 22136AC  23258.48927373  .00003755  00000-0  25373-3 0  9993,2 54077  53.2172  71.8891 0000943  84.2340 275.8760 15.08861969 50324,6917.813,95.436,540.331,539.026,0.0
54077.0,STARLINK-5171,PAYLOAD,2023-09-15 18:06:05,15.08872339,0.0001186,53.2171,70.6995,88.8878,271.225,0.00039378,5.99e-05,0.0,0 STARLINK-5171,1 54077U 22136AC  23258.75422550  .00005990  00000-0  39378-3 0  9993,2 54077  53.2171  70.6995 0001186  88.8878 271.2250 15.08872339 50845,6917.782,95.436,540.467,538.826,0.0
54077.0,STARLINK-5171,PAYLOAD,2023-09-16 11:35:21,15.08829731,6.62e-05,53.2175,67.4277,73.3815,286.725,-3.392e-05,-8.27e-06,0.0,0 STARLINK-5171,1 54077U 22136AC  23259.48288432 -.00000827  00000-0 -33920-4 0  9997,2 54077  53.2175  67.4277 0000662  73.3815 286.7250 15.08829731 50472,6917.912,95.438,540.235,539.319,0.0
54077.0,STARLINK-5171,PAYLOAD,2023-09-16 17:56:53,15.088304,0.0001039,53.2172,66.2386,81.891,278.22,-3.6977e-05,-8.76e-06,0.0,0 STARLINK-5171,1 54077U 22136AC  23259.74784565 -.00000876  00000-0 -36977-4 0  9993,2 54077  53.2172  66.2386 0001039  81.8910 278.2200 15.08830400 50999,6917.91,95.438,540.494,539.056,0.0
